[Satellite]
VERSION=1.1
NAME=SL-8 R/B
NICKNAME=SL-8 R/B
TLE1=1 21088U 91006B   17186.09534803  .00000122  00000-0  10803-3 0  9990
TLE2=2 21088  82.9416   6.9233 0021127 270.2597 229.4232 13.77059783327791
